NORAD_CAT_ID,OBJECT_NAME,OBJECT_TYPE,EPOCH,MEAN_MOTION,ECCENTRICITY,INCLINATION,RA_OF_ASC_NODE,ARG_OF_PERICENTER,MEAN_ANOMALY,BSTAR,MEAN_MOTION_DOT,MEAN_MOTION_DDOT,TLE_LINE0,TLE_LINE1,TLE_LINE2,SEMIMAJOR_AXIS,PERIOD,APOGEE,PERIGEE,DECAYED
52286.0,STARLINK-3802,PAYLOAD,2024-06-05 13:41:35,15.08843321,0.0001374,53.2174,101.7057,88.7491,271.3658,-6.8818e-06,-3.97e-06,0.0,0 STARLINK-3802,1 52286U 22041AB  24157.57055103 -.00000397  00000-0 -68818-5 0  9994,2 52286  53.2174 101.7057 0001374  88.7491 271.3658 15.08843321117567,6917.87,95.437,540.686,538.785,0.0
52286.0,STARLINK-3802,PAYLOAD,2024-06-05 20:03:08,15.08838768,0.000146,53.217,100.5145,91.8372,268.2787,-3.2624e-05,-8.07e-06,0.0,0 STARLINK-3802,1 52286U 22041AB  24157.83551586 -.00000807  00000-0 -32624-4 0  9990,2 52286  53.2170 100.5145 0001460  91.8372 268.2787 15.08838768118824,6917.884,95.438,540.759,538.739,0.0
52286.0,STARLINK-3802,PAYLOAD,2024-06-06 13:32:22,15.08841058,0.0001269,53.2162,97.2427,110.2764,249.8365,-2.738e-05,-7.24e-06,0.0,0 STARLINK-3802,1 52286U 22041AB  24158.56415259 -.00000724  00000-0 -27380-4 0  9998,2 52286  53.2162  97.2427 0001269 110.2764 249.8365 15.08841058117718,6917.877,95.437,540.62,538.864,0.0
52286.0,STARLINK-3802,PAYLOAD,2024-06-07 22:55:28,15.08860321,0.0001446,53.2157,90.9977,97.8139,262.3017,-0.00029932,-5.051e-05,0.0,0 STARLINK-3802,1 52286U 22041AB  24159.95519000 -.00005051  00000-0 -29932-3 0  9993,2 52286  53.2157  90.9977 0001446  97.8139 262.3017 15.08860321117926,6917.818,95.436,540.684,538.683,0.0
52286.0,STARLINK-3802,PAYLOAD,2024-06-08 02:06:15,15.08835904,0.0001414,53.2179,90.4039,98.9103,261.2049,0.00012587,1.716e-05,0.0,0 STARLINK-3802,1 52286U 22041AB  24160.08767511  .00001716  00000-0  12587-3 0  9991,2 52286  53.2179  90.4039 0001414  98.9103 261.2049 15.08835904119162,6917.893,95.438,540.736,538.78,0.0
52286.0,STARLINK-3802,PAYLOAD,2024-06-08 22:46:16,15.08833472,0.0001135,53.2149,86.5404,76.7627,283.3491,1.2564e-05,-8.8e-07,0.0,0 STARLINK-3802,1 52286U 22041AB  24160.94880209 -.00000088  00000-0  12564-4 0  9994,2 52286  53.2149  86.5404 0001135  76.7627 283.3491 15.08833472118079,6917.9,95.438,540.551,538.98,0.0
52286.0,STARLINK-3802,PAYLOAD,2024-06-09 01:57:02,15.08836773,0.000124,53.217,85.9463,90.1442,269.9692,3.1804e-05,2.18e-06,0.0,0 STARLINK-3802,1 52286U 22041AB  24161.08127950  .00000218  00000-0  31804-4 0  9999,2 52286  53.2170  85.9463 0001240  90.1442 269.9692 15.08836773118095,6917.89,95.438,540.613,538.897,0.0
52286.0,STARLINK-3802,PAYLOAD,2024-06-09 19:26:17,15.08834129,0.0001357,53.2187,82.6776,97.4468,262.6678,-6.9099e-05,-1.387e-05,0.0,0 STARLINK-3802,1 52286U 22041AB  24161.80992937 -.00001387  00000-0 -69099-4 0  9991,2 52286  53.2187  82.6776 0001357  97.4468 262.6678 15.08834129119426,6917.898,95.438,540.702,538.825,0.0
52286.0,STARLINK-3802,PAYLOAD,2024-06-09 22:37:04,15.08832742,0.0001315,53.2185,82.0825,93.5749,266.5393,-7.8684e-05,-1.54e-05,0.0,0 STARLINK-3802,1 52286U 22041AB  24161.94241123 -.00001540  00000-0 -78684-4 0  9991,2 52286  53.2185  82.0825 0001315  93.5749 266.5393 15.08832742118229,6917.903,95.438,540.677,538.858,0.0
52286.0,STARLINK-3802,PAYLOAD,2024-06-10 11:20:08,15.08839885,0.0001219,53.2179,79.7019,87.5334,272.5797,-1.4868e-05,-5.24e-06,0.0,0 STARLINK-3802,1 52286U 22041AB  24162.47232527 -.00000524  00000-0 -14868-4 0  9993,2 52286  53.2179  79.7019 0001219  87.5334 272.5797 15.08839885119520,6917.881,95.438,540.589,538.902,0.0
52286.0,STARLINK-3802,PAYLOAD,2024-06-10 22:27:50,15.08833239,0.0001257,53.2177,77.62,94.7481,265.3655,0.00016035,2.265e-05,0.0,0 STARLINK-3802,1 52286U 22041AB  24162.93600543  .00002265  00000-0  16035-3 0  9990,2 52286  53.2177  77.6200 0001257  94.7481 265.3655 15.08833239118374,6917.901,95.438,540.636,538.896,0.0
52286.0,STARLINK-3802,PAYLOAD,2024-06-11 03:13:59,15.08847705,0.00014,53.2189,76.7302,102.9149,257.2,0.000158,2.228e-05,0.0,0 STARLINK-3802,1 52286U 22041AB  24163.13471740  .00002228  00000-0  15800-3 0  9996,2 52286  53.2189  76.7302 0001400 102.9149 257.2000 15.08847705119629,6917.857,95.437,540.69,538.753,0.0
52286.0,STARLINK-3802,PAYLOAD,2024-06-11 11:10:55,15.08844376,0.0001296,53.2185,75.2422,88.3793,271.7348,0.00015569,2.191e-05,0.0,0 STARLINK-3802,1 52286U 22041AB  24163.46591866  .00002191  00000-0  15569-3 0  9995,2 52286  53.2185  75.2422 0001296  88.3793 271.7348 15.08844376118454,6917.867,95.437,540.629,538.835,0.0
52286.0,STARLINK-3802,PAYLOAD,2024-06-12 01:29:23,15.08845518,0.0001389,53.2184,72.5645,77.0971,283.0176,0.00010442,1.375e-05,0.0,0 STARLINK-3802,1 52286U 22041AB  24164.06207934  .00001375  00000-0  10442-3 0  9990,2 52286  53.2184  72.5645 0001389  77.0971 283.0176 15.08845518119765,6917.864,95.437,540.689,538.768,0.0
52286.0,STARLINK-3802,PAYLOAD,2024-06-12 11:01:42,15.08839804,0.0001182,53.2179,70.78,85.4928,274.6199,2.3982e-05,9.4e-07,0.0,0 STARLINK-3802,1 52286U 22041AB  24164.45952372  .00000094  00000-0  23982-4 0  9997,2 52286  53.2179  70.7800 0001182  85.4928 274.6199 15.08839804119827,6917.881,95.438,540.564,538.928,0.0
52286.0,STARLINK-3802,PAYLOAD,2024-06-12 22:09:25,15.08832951,0.0001978,53.2183,68.6985,85.5253,274.5965,-6.1482e-05,-1.266e-05,0.0,0 STARLINK-3802,1 52286U 22041AB  24164.92321440 -.00001266  00000-0 -61482-4 0  9996,2 52286  53.2183  68.6985 0001978  85.5253 274.5965 15.08832951118675,6917.902,95.438,541.135,538.399,0.0
52286.0,STARLINK-3802,PAYLOAD,2024-06-13 01:20:11,15.08837457,0.0001447,53.218,68.1049,90.381,269.7348,-0.00013197,-2.387e-05,0.0,0 STARLINK-3802,1 52286U 22041AB  24165.05569343 -.00002387  00000-0 -13197-3 0  9991,2 52286  53.2180  68.1049 0001447  90.3810 269.7348 15.08837457119917,6917.888,95.438,540.754,538.752,0.0
52286.0,STARLINK-3802,PAYLOAD,2024-06-13 10:52:30,15.08841977,0.0001486,53.2184,66.3212,91.5324,268.5838,-4.5773e-05,-1.016e-05,0.0,0 STARLINK-3802,1 52286U 22041AB  24165.45312780 -.00001016  00000-0 -45773-4 0  9990,2 52286  53.2184  66.3212 0001486  91.5324 268.5838 15.08841977119978,6917.874,95.437,540.767,538.711,0.0
52286.0,STARLINK-3802,PAYLOAD,2024-06-13 22:00:11,15.08845756,0.0001455,53.2181,64.239,84.359,275.7568,6.468e-05,7.42e-06,0.0,0 STARLINK-3802,1 52286U 22041AB  24165.91680071  .00000742  00000-0  64680-4 0  9993,2 52286  53.2181  64.2390 0001455  84.3590 275.7568 15.08845756118822,6917.863,95.437,540.734,538.721,0.0
52286.0,STARLINK-3802,PAYLOAD,2024-06-14 10:43:16,15.08850189,0.0001282,53.2172,61.8596,106.3555,253.7578,-6.7273e-05,-1.359e-05,0.0,0 STARLINK-3802,1 52286U 22041AB  24166.44671890 -.00001359  00000-0 -67273-4 0  9999,2 52286  53.2172  61.8596 0001282 106.3555 253.7578 15.08850189118909,6917.849,95.437,540.601,538.827,0.0
52286.0,STARLINK-3802,PAYLOAD,2024-06-14 23:26:21,15.08842886,0.0001392,53.218,59.4818,86.191,273.9241,9.0456e-05,1.152e-05,0.0,0 STARLINK-3802,1 52286U 22041AB  24166.97664321  .00001152  00000-0  90456-4 0  9996,2 52286  53.2180  59.4818 0001392  86.1910 273.9241 15.08842886118984,6917.872,95.437,540.7,538.774,0.0
52286.0,STARLINK-3802,PAYLOAD,2024-06-14 23:26:22,15.08835678,0.0001404,53.2171,59.4815,88.9549,271.1604,0.00013504,1.862e-05,0.0,0 STARLINK-3802,1 52286U 22041AB  24166.97664551  .00001862  00000-0  13504-3 0  9997,2 52286  53.2171  59.4815 0001404  88.9549 271.1604 15.08835678118987,6917.894,95.438,540.73,538.787,0.0
52286.0,STARLINK-3802,PAYLOAD,2024-06-15 23:17:09,15.08843245,0.0001331,53.2177,55.0194,93.9426,266.1719,5.3652e-05,5.66e-06,0.0,0 STARLINK-3802,1 52286U 22041AB  24167.97024346  .00000566  00000-0  53652-4 0  9999,2 52286  53.2177  55.0194 0001331  93.9426 266.1719 15.08843245119132,6917.87,95.437,540.656,538.815,0.0
52286.0,STARLINK-3802,PAYLOAD,2024-06-16 23:07:56,15.08835253,0.0001302,53.2189,50.5635,82.2849,277.8291,6.1922e-05,6.98e-06,0.0,0 STARLINK-3802,1 52286U 22041AB  24168.96384959  .00000698  00000-0  61922-4 0  9993,2 52286  53.2189  50.5635 0001302  82.2849 277.8291 15.08835253119283,6917.895,95.438,540.661,538.859,0.0
52286.0,STARLINK-3802,PAYLOAD,2024-06-17 21:23:20,15.08837588,0.0001231,53.2172,46.3966,79.2564,280.8566,2.6712e-05,1.37e-06,0.0,0 STARLINK-3802,1 52286U 22041AB  24169.89121059  .00000137  00000-0  26712-4 0  9992,2 52286  53.2172  46.3966 0001231  79.2564 280.8566 15.08837588120640,6917.888,95.438,540.604,538.901,0.0
52286.0,STARLINK-3802,PAYLOAD,2024-06-17 22:58:43,15.08839551,0.0001186,53.2164,46.0999,80.7288,279.3838,5.7602e-05,6.29e-06,0.0,0 STARLINK-3802,1 52286U 22041AB  24169.95744846  .00000629  00000-0  57602-4 0  9992,2 52286  53.2164  46.0999 0001186  80.7288 279.3838 15.08839551119435,6917.882,95.438,540.567,538.926,0.0
52286.0,STARLINK-3802,PAYLOAD,2024-06-18 08:31:02,15.08843735,0.0001191,53.2169,44.3155,82.485,277.6277,7.3582e-05,8.84e-06,0.0,0 STARLINK-3802,1 52286U 22041AB  24170.35488429  .00000884  00000-0  73582-4 0  9998,2 52286  53.2169  44.3155 0001191  82.4850 277.6277 15.08843735120715,6917.869,95.437,540.558,538.91,0.0
52286.0,STARLINK-3802,PAYLOAD,2024-06-18 19:38:44,15.0883498,0.0001314,53.2172,42.2344,87.546,272.5683,1.8475e-05,6e-08,0.0,0 STARLINK-3802,1 52286U 22041AB  24170.81857290  .00000006  00000-0  18475-4 0  9991,2 52286  53.2172  42.2344 0001314  87.5460 272.5683 15.08834980120780,6917.896,95.438,540.67,538.852,0.0
52286.0,STARLINK-3802,PAYLOAD,2024-06-18 21:14:07,15.08840747,0.0001254,53.2175,41.9376,60.5936,299.5182,6.5862e-05,7.6e-06,0.0,0 STARLINK-3802,1 52286U 22041AB  24170.88480891  .00000760  00000-0  65862-4 0  9996,2 52286  53.2175  41.9376 0001254  60.5936 299.5182 15.08840747119572,6917.878,95.438,540.611,538.876,0.0
52286.0,STARLINK-3802,PAYLOAD,2024-06-19 08:21:49,15.08842517,8.16e-05,53.2177,39.8532,81.1473,278.9611,6.39e-05,7.3e-06,0.0,0 STARLINK-3802,1 52286U 22041AB  24171.34848530  .00000730  00000-0  63900-4 0  9994,2 52286  53.2177  39.8532 0000816  81.1473 278.9611 15.08842517120861,6917.873,95.437,540.302,539.173,0.0
